{
  "type": "FeatureCollection",
  "features": [
    {
      "type": "Feature",
      "properties": {
        "norad_id": 66422,
        "name": "STARLINK-35617",
        "group": "last-30-days",
        "lat": -28.753741908095996,
        "lon": 53.862177409318605,
        "alt_km": 449.65872833643607,
        "timestamp": "2025-12-05T11:32:54.808684+00:00",
        "meta_object_name": "STARLINK-35617",
        "meta_object_id": "2025-259A",
        "meta_epoch": "2025-12-04T18:00:02.000160",
        "meta_mean_motion": 15.41867505,
        "meta_eccentricity": 0.0001686,
        "meta_inclination": 43.0008,
        "meta_ra_of_asc_node": 94.1478,
        "meta_arg_of_pericenter": 312.3501,
        "meta_mean_anomaly": 263.1248,
        "meta_ephemeris_type": 0,
        "meta_classification_type": "U",
        "meta_norad_cat_id": 66422,
        "meta_element_set_no": 999,
        "meta_rev_at_epoch": 499,
        "meta_bstar": -0.044535,
        "meta_mean_motion_dot": -0.01749391,
        "meta_mean_motion_ddot": 0,
        "tle_line1": "1 66422U 25259A   25338.75002315 -.01749391  00000+0 -44535-1 0  9994",
        "tle_line2": "2 66422  43.0008  94.1478 0001686 312.3501 263.1248 15.41867505  4996"
      },
      "geometry": {
        "type": "Point",
        "coordinates": [
          53.862177409318605,
          -28.753741908095996
        ]
      }
    },
    {
      "type": "Feature",
      "properties": {
        "norad_id": 66423,
        "name": "STARLINK-35618",
        "group": "last-30-days",
        "lat": -20.627446790215366,
        "lon": 66.07729599200557,
        "alt_km": 445.76347221208107,
        "timestamp": "2025-12-05T11:32:54.808695+00:00",
        "meta_object_name": "STARLINK-35618",
        "meta_object_id": "2025-259B",
        "meta_epoch": "2025-12-04T18:00:02.000160",
        "meta_mean_motion": 15.43221245,
        "meta_eccentricity": 0.0001436,
        "meta_inclination": 43.0005,
        "meta_ra_of_asc_node": 94.1233,
        "meta_arg_of_pericenter": 282.2729,
        "meta_mean_anomaly": 303.5165,
        "meta_ephemeris_type": 0,
        "meta_classification_type": "U",
        "meta_norad_cat_id": 66423,
        "meta_element_set_no": 999,
        "meta_rev_at_epoch": 499,
        "meta_bstar": -0.044128,
        "meta_mean_motion_dot": -0.01808318,
        "meta_mean_motion_ddot": 0,
        "tle_line1": "1 66423U 25259B   25338.75002315 -.01808318  00000+0 -44128-1 0  9998",
        "tle_line2": "2 66423  43.0005  94.1233 0001436 282.2729 303.5165 15.43221245  4997"
      },
      "geometry": {
        "type": "Point",
        "coordinates": [
          66.07729599200557,
          -20.627446790215366
        ]
      }
    },
    {
      "type": "Feature",
      "properties": {
        "norad_id": 66424,
        "name": "STARLINK-35588",
        "group": "last-30-days",
        "lat": -12.784133943268063,
        "lon": 75.78074248032304,
        "alt_km": 442.13702085716795,
        "timestamp": "2025-12-05T11:32:54.808704+00:00",
        "meta_object_name": "STARLINK-35588",
        "meta_object_id": "2025-259C",
        "meta_epoch": "2025-12-04T18:00:02.000160",
        "meta_mean_motion": 15.44616308,
        "meta_eccentricity": 0.0001234,
        "meta_inclination": 43.001,
        "meta_ra_of_asc_node": 94.1021,
        "meta_arg_of_pericenter": 280.047,
        "meta_mean_anomaly": 314.6854,
        "meta_ephemeris_type": 0,
        "meta_classification_type": "U",
        "meta_norad_cat_id": 66424,
        "meta_element_set_no": 999,
        "meta_rev_at_epoch": 499,
        "meta_bstar": -0.04729,
        "meta_mean_motion_dot": -0.02008349,
        "meta_mean_motion_ddot": 0,
        "tle_line1": "1 66424U 25259C   25338.75002315 -.02008349  00000+0 -47290-1 0  9999",
        "tle_line2": "2 66424  43.0010  94.1021 0001234 280.0470 314.6854 15.44616308  4991"
      },
      "geometry": {
        "type": "Point",
        "coordinates": [
          75.78074248032304,
          -12.784133943268063
        ]
      }
    },
    {
      "type": "Feature",
      "properties": {
        "norad_id": 66425,
        "name": "STARLINK-35555",
        "group": "last-30-days",
        "lat": -5.36238000381597,
        "lon": 84.06311228170914,
        "alt_km": 437.5014472816374,
        "timestamp": "2025-12-05T11:32:54.808714+00:00",
        "meta_object_name": "STARLINK-35555",
        "meta_object_id": "2025-259D",
        "meta_epoch": "2025-12-04T18:00:02.000160",
        "meta_mean_motion": 15.45944837,
        "meta_eccentricity": 0.0001171,
        "meta_inclination": 43.0011,
        "meta_ra_of_asc_node": 94.0815,
        "meta_arg_of_pericenter": 281.5697,
        "meta_mean_anomaly": 320.6937,
        "meta_ephemeris_type": 0,
        "meta_classification_type": "U",
        "meta_norad_cat_id": 66425,
        "meta_element_set_no": 999,
        "meta_rev_at_epoch": 499,
        "meta_bstar": -0.044921,
        "meta_mean_motion_dot": -0.01998588,
        "meta_mean_motion_ddot": 0,
        "tle_line1": "1 66425U 25259D   25338.75002315 -.01998588  00000+0 -44921-1 0  9990",
        "tle_line2": "2 66425  43.0011  94.0815 0001171 281.5697 320.6937 15.45944837  4991"
      },
      "geometry": {
        "type": "Point",
        "coordinates": [
          84.06311228170914,
          -5.36238000381597
        ]
      }
    },
    {
      "type": "Feature",
      "properties": {
        "norad_id": 66426,
        "name": "STARLINK-35589",
        "group": "last-30-days",
        "lat": 1.1656150305993318,
        "lon": 91.07274823998418,
        "alt_km": 433.1495294480874,
        "timestamp": "2025-12-05T11:32:54.808727+00:00",
        "meta_object_name": "STARLINK-35589",
        "meta_object_id": "2025-259E",
        "meta_epoch": "2025-12-04T18:00:02.000160",
        "meta_mean_motion": 15.47293608,
        "meta_eccentricity": 0.0001333,
        "meta_inclination": 43.0006,
        "meta_ra_of_asc_node": 94.0675,
        "meta_arg_of_pericenter": 276.7191,
        "meta_mean_anomaly": 331.6551,
        "meta_ephemeris_type": 0,
        "meta_classification_type": "U",
        "meta_norad_cat_id": 66426,
        "meta_element_set_no": 999,
        "meta_rev_at_epoch": 499,
        "meta_bstar": -0.043812,
        "meta_mean_motion_dot": -0.02038479,
        "meta_mean_motion_ddot": 0,
        "tle_line1": "1 66426U 25259E   25338.75002315 -.02038479  00000+0 -43812-1 0  9994",
        "tle_line2": "2 66426  43.0006  94.0675 0001333 276.7191 331.6551 15.47293608  4994"
      },
      "geometry": {
        "type": "Point",
        "coordinates": [
          91.07274823998418,
          1.1656150305993318
        ]
      }
    },
    {
      "type": "Feature",
      "properties": {
        "norad_id": 66427,
        "name": "STARLINK-35611",
        "group": "last-30-days",
        "lat": 6.751011064285169,
        "lon": 97.09880444284563,
        "alt_km": 428.7841952710787,
        "timestamp": "2025-12-05T11:32:54.808738+00:00",
        "meta_object_name": "STARLINK-35611",
        "meta_object_id": "2025-259F",
        "meta_epoch": "2025-12-04T18:00:02.000160",
        "meta_mean_motion": 15.48617955,
        "meta_eccentricity": 0.0001353,
        "meta_inclination": 43.0006,
        "meta_ra_of_asc_node": 94.0552,
        "meta_arg_of_pericenter": 270.5947,
        "meta_mean_anomaly": 342.4783,
        "meta_ephemeris_type": 0,
        "meta_classification_type": "U",
        "meta_norad_cat_id": 66427,
        "meta_element_set_no": 999,
        "meta_rev_at_epoch": 499,
        "meta_bstar": -0.041624,
        "meta_mean_motion_dot": -0.02030273,
        "meta_mean_motion_ddot": 0,
        "tle_line1": "1 66427U 25259F   25338.75002315 -.02030273  00000+0 -41624-1 0  9998",
        "tle_line2": "2 66427  43.0006  94.0552 0001353 270.5947 342.4783 15.48617955  4995"
      },
      "geometry": {
        "type": "Point",
        "coordinates": [
          97.09880444284563,
          6.751011064285169
        ]
      }
    },
    {
      "type": "Feature",
      "properties": {
        "norad_id": 66428,
        "name": "STARLINK-35610",
        "group": "last-30-days",
        "lat": 11.323465915053108,
        "lon": 102.19301256812636,
        "alt_km": 424.1383518038783,
        "timestamp": "2025-12-05T11:32:54.808750+00:00",
        "meta_object_name": "STARLINK-35610",
        "meta_object_id": "2025-259G",
        "meta_epoch": "2025-12-04T18:00:02.000160",
        "meta_mean_motion": 15.49923231,
        "meta_eccentricity": 0.0001476,
        "meta_inclination": 43.0007,
        "meta_ra_of_asc_node": 94.0472,
        "meta_arg_of_pericenter": 276.032,
        "meta_mean_anomaly": 340.3269,
        "meta_ephemeris_type": 0,
        "meta_classification_type": "U",
        "meta_norad_cat_id": 66428,
        "meta_element_set_no": 999,
        "meta_rev_at_epoch": 499,
        "meta_bstar": -0.039047,
        "meta_mean_motion_dot": -0.01998952,
        "meta_mean_motion_ddot": 0,
        "tle_line1": "1 66428U 25259G   25338.75002315 -.01998952  00000+0 -39047-1 0  9991",
        "tle_line2": "2 66428  43.0007  94.0472 0001476 276.0320 340.3269 15.49923231  4994"
      },
      "geometry": {
        "type": "Point",
        "coordinates": [
          102.19301256812636,
          11.323465915053108
        ]
      }
    }
  ]
}